ORBCOMM FM24            
1 25478U 98053D   24180.39829419  .00001821  00000+0  67102-3 0  9991
2 25478  45.0076 143.8760 0002672 293.2330  66.8236 14.35873736346830
ORBCOMM FM25            
1 25479U 98053E   24179.59993132  .00001804  00000+0  66525-3 0  9995
2 25479  45.0066 145.8959 0005214 285.1842  74.8428 14.35851072346735
ORBCOMM FM26            
1 25480U 98053F   24179.62558107  .00001492  00000+0  56501-3 0  9996
2 25480  45.0064 140.1015 0007442 297.4404  62.5686 14.35268895346679
ORBCOMM FM27            
1 25481U 98053G   24179.58849747  .00001757  00000+0  64960-3 0  9997
2 25481  45.0049 146.2124 0001919 325.3603  34.7119 14.35838972346666
ORBCOMM FM28            
1 25482U 98053H   24180.04755872  .00001698  00000+0  62391-3 0  9996
2 25482  45.0069  82.3507 0004627 331.3284  28.7309 14.36264188347573
ORBCOMM FM30            
1 25980U 99065A   24179.86139768  .00001452  00000+0  54982-3 0  9996
2 25980  45.0335 324.5665 0004724  34.9152 325.2005 14.35410645283506
ORBCOMM FM31            
1 25981U 99065B   24180.52304383  .00001766  00000+0  65829-3 0  9999
2 25981  45.0246 315.1023 0002100  81.1324 278.9761 14.35408504284126
ORBCOMM FM32            
1 25982U 99065C   24179.91192841  .00001476  00000+0  56920-3 0  9995
2 25982  45.0176 332.1354 0004578  70.4628 289.6713 14.34408424283691
